KUIPER-00095            
1 65134U 25171C   25248.25722068  .00036969  00000+0  10586-2 0  9992
2 65134  51.8747 285.4731 0004396 243.4853 116.5682 15.35568260  5054
KUIPER-00096            
1 65135U 25171D   25247.40751247  .00020041  00000+0  57619-3 0  9993
2 65135  51.8753 289.5262 0004184 224.8567 135.2081 15.35784800  4922
KUIPER-00097            
1 65136U 25171E   25248.25825222  .00055376  00000+0  15790-2 0  9995
2 65136  51.8753 285.4791 0004274 246.7851 113.2685 15.35517561  5042
KUIPER-00098            
1 65137U 25171F   25247.40127533  .00042255  00000+0  11846-2 0  9992
2 65137  51.8761 289.4899 0004919 203.8977 156.1781 15.36167607  4263
KUIPER-00099            
1 65138U 25171G   25248.11932098  .00044672  00000+0  12558-2 0  9998
2 65138  51.8755 286.0547 0005015 220.2215 139.8401 15.36055755  5028
KUIPER-00100            
1 65139U 25171H   25247.40646879  .00018165  00000+0  52375-3 0  9999
2 65139  51.8754 289.5195 0004449 222.2914 137.7730 15.35763873  4918
KUIPER-00102            
1 65140U 25171J   25247.41111980  .00044526  00000+0  12730-2 0  9992
2 65140  51.8751 289.5487 0004100 233.0817 126.9793 15.35534026  4912
KUIPER-00103            
1 65141U 25171K   25247.40832877  .00019586  00000+0  56489-3 0  9995
2 65141  51.8753 289.5308 0003814 223.7968 136.2716 15.35702825  4914
